{
  "type": "FeatureCollection",
  "features": [
    {
      "type": "Feature",
      "properties": {
        "norad_id": 38867,
        "name": "INTELSAT 23 (IS-23)",
        "group": "intelsat",
        "lat": 0.009237107727820913,
        "lon": 125.89522378201984,
        "alt_km": 35785.86304529732,
        "timestamp": "2025-12-02T07:10:08.777355+00:00",
        "meta_object_name": "INTELSAT 23 (IS-23)",
        "meta_object_id": "2012-057A",
        "meta_epoch": "2025-12-01T18:41:53.711232",
        "meta_mean_motion": 1.00270713,
        "meta_eccentricity": 0.0001777,
        "meta_inclination": 0.0436,
        "meta_ra_of_asc_node": 125.9,
        "meta_arg_of_pericenter": 85.2924,
        "meta_mean_anomaly": 87.179,
        "meta_ephemeris_type": 0,
        "meta_classification_type": "U",
        "meta_norad_cat_id": 38867,
        "meta_element_set_no": 999,
        "meta_rev_at_epoch": 4797,
        "meta_bstar": 0,
        "meta_mean_motion_dot": -2.63e-06,
        "meta_mean_motion_ddot": 0,
        "tle_line1": "1 38867U 12057A   25335.77909388 -.00000263  00000+0  00000+0 0  9996",
        "tle_line2": "2 38867   0.0436 125.9000 0001777  85.2924  87.1790  1.00270713 47976"
      },
      "geometry": {
        "type": "Point",
        "coordinates": [
          125.89522378201984,
          0.009237107727820913
        ]
      }
    },
    {
      "type": "Feature",
      "properties": {
        "norad_id": 39360,
        "name": "FM-6",
        "group": "intelsat",
        "lat": -0.014636130772844858,
        "lon": 62.72636982050493,
        "alt_km": 35790.94615423074,
        "timestamp": "2025-12-02T07:10:08.777367+00:00",
        "meta_object_name": "FM-6",
        "meta_object_id": "2013-058A",
        "meta_epoch": "2025-12-01T16:41:08.615904",
        "meta_mean_motion": 1.00270134,
        "meta_eccentricity": 0.0003006,
        "meta_inclination": 0.0028,
        "meta_ra_of_asc_node": 104.685,
        "meta_arg_of_pericenter": 68.3464,
        "meta_mean_anomaly": 31.9137,
        "meta_ephemeris_type": 0,
        "meta_classification_type": "U",
        "meta_norad_cat_id": 39360,
        "meta_element_set_no": 999,
        "meta_rev_at_epoch": 4409,
        "meta_bstar": 0,
        "meta_mean_motion_dot": 5e-08,
        "meta_mean_motion_ddot": 0,
        "tle_line1": "1 39360U 13058A   25335.69523861  .00000005  00000+0  00000+0 0  9999",
        "tle_line2": "2 39360   0.0028 104.6850 0003006  68.3464  31.9137  1.00270134 44096"
      },
      "geometry": {
        "type": "Point",
        "coordinates": [
          62.72636982050493,
          -0.014636130772844858
        ]
      }
    },
    {
      "type": "Feature",
      "properties": {
        "norad_id": 40271,
        "name": "INTELSAT 30 (IS-30)",
        "group": "intelsat",
        "lat": 0.027080179060479607,
        "lon": 83.8695005511769,
        "alt_km": 35781.05956892692,
        "timestamp": "2025-12-02T07:10:08.777379+00:00",
        "meta_object_name": "INTELSAT 30 (IS-30)",
        "meta_object_id": "2014-062A",
        "meta_epoch": "2025-12-01T11:39:00.052128",
        "meta_mean_motion": 1.00271598,
        "meta_eccentricity": 0.0001213,
        "meta_inclination": 0.0114,
        "meta_ra_of_asc_node": 352.6189,
        "meta_arg_of_pericenter": 97.4204,
        "meta_mean_anomaly": 60.2729,
        "meta_ephemeris_type": 0,
        "meta_classification_type": "U",
        "meta_norad_cat_id": 40271,
        "meta_element_set_no": 999,
        "meta_rev_at_epoch": 480,
        "meta_bstar": 0,
        "meta_mean_motion_dot": -1.29e-06,
        "meta_mean_motion_ddot": 0,
        "tle_line1": "1 40271U 14062A   25335.48541727 -.00000129  00000+0  00000+0 0  9994",
        "tle_line2": "2 40271   0.0114 352.6189 0001213  97.4204  60.2729  1.00271598  4800"
      },
      "geometry": {
        "type": "Point",
        "coordinates": [
          83.8695005511769,
          0.027080179060479607
        ]
      }
    },
    {
      "type": "Feature",
      "properties": {
        "norad_id": 40333,
        "name": "DIRECTV 14",
        "group": "intelsat",
        "lat": 0.01633209228892192,
        "lon": 79.68767752473154,
        "alt_km": 35787.47105506388,
        "timestamp": "2025-12-02T07:10:08.777390+00:00",
        "meta_object_name": "DIRECTV 14",
        "meta_object_id": "2014-078B",
        "meta_epoch": "2025-12-01T15:03:17.987328",
        "meta_mean_motion": 1.00271508,
        "meta_eccentricity": 4.62e-05,
        "meta_inclination": 0.0022,
        "meta_ra_of_asc_node": 1.7567,
        "meta_arg_of_pericenter": 209.2635,
        "meta_mean_anomaly": 346.3273,
        "meta_ephemeris_type": 0,
        "meta_classification_type": "U",
        "meta_norad_cat_id": 40333,
        "meta_element_set_no": 999,
        "meta_rev_at_epoch": 4006,
        "meta_bstar": 0,
        "meta_mean_motion_dot": -1.04e-06,
        "meta_mean_motion_ddot": 0,
        "tle_line1": "1 40333U 14078B   25335.62729152 -.00000104  00000+0  00000+0 0  9999",
        "tle_line2": "2 40333   0.0022   1.7567 0000462 209.2635 346.3273  1.00271508 40066"
      },
      "geometry": {
        "type": "Point",
        "coordinates": [
          79.68767752473154,
          0.01633209228892192
        ]
      }
    },
    {
      "type": "Feature",
      "properties": {
        "norad_id": 40663,
        "name": "DIRECTV 15",
        "group": "intelsat",
        "lat": 0.019145779408201655,
        "lon": 76.04030644974642,
        "alt_km": 35787.43525836647,
        "timestamp": "2025-12-02T07:10:08.777402+00:00",
        "meta_object_name": "DIRECTV 15",
        "meta_object_id": "2015-026A",
        "meta_epoch": "2025-12-01T15:02:03.106176",
        "meta_mean_motion": 1.00270344,
        "meta_eccentricity": 2.26e-05,
        "meta_inclination": 0.0414,
        "meta_ra_of_asc_node": 104.2593,
        "meta_arg_of_pericenter": 141.9124,
        "meta_mean_anomaly": 307.2148,
        "meta_ephemeris_type": 0,
        "meta_classification_type": "U",
        "meta_norad_cat_id": 40663,
        "meta_element_set_no": 999,
        "meta_rev_at_epoch": 3848,
        "meta_bstar": 0,
        "meta_mean_motion_dot": -8.1e-07,
        "meta_mean_motion_ddot": 0,
        "tle_line1": "1 40663U 15026A   25335.62642484 -.00000081  00000+0  00000+0 0  9995",
        "tle_line2": "2 40663   0.0414 104.2593 0000226 141.9124 307.2148  1.00270344 38485"
      },
      "geometry": {
        "type": "Point",
        "coordinates": [
          76.04030644974642,
          0.019145779408201655
        ]
      }
    },
    {
      "type": "Feature",
      "properties": {
        "norad_id": 40664,
        "name": "SKY MEXICO-1",
        "group": "intelsat",
        "lat": 0.025328958526712863,
        "lon": 100.14898073278759,
        "alt_km": 35797.12074046055,
        "timestamp": "2025-12-02T07:10:08.777413+00:00",
        "meta_object_name": "SKY MEXICO-1",
        "meta_object_id": "2015-026B",
        "meta_epoch": "2025-12-01T18:34:24.427776",
        "meta_mean_motion": 1.00271024,
        "meta_eccentricity": 0.0002656,
        "meta_inclination": 0.0174,
        "meta_ra_of_asc_node": 325.3482,
        "meta_arg_of_pericenter": 298.5137,
        "meta_mean_anomaly": 6.8739,
        "meta_ephemeris_type": 0,
        "meta_classification_type": "U",
        "meta_norad_cat_id": 40664,
        "meta_element_set_no": 999,
        "meta_rev_at_epoch": 3847,
        "meta_bstar": 0,
        "meta_mean_motion_dot": -2.13e-06,
        "meta_mean_motion_ddot": 0,
        "tle_line1": "1 40664U 15026B   25335.77389384 -.00000213  00000+0  00000+0 0  9996",
        "tle_line2": "2 40664   0.0174 325.3482 0002656 298.5137   6.8739  1.00271024 38477"
      },
      "geometry": {
        "type": "Point",
        "coordinates": [
          100.14898073278759,
          0.025328958526712863
        ]
      }
    },
    {
      "type": "Feature",
      "properties": {
        "norad_id": 40874,
        "name": "INTELSAT 34 (IS-34)",
        "group": "intelsat",
        "lat": -0.0018460837378271176,
        "lon": 123.40902715091386,
        "alt_km": 35783.7350615672,
        "timestamp": "2025-12-02T07:10:08.777425+00:00",
        "meta_object_name": "INTELSAT 34 (IS-34)",
        "meta_object_id": "2015-039A",
        "meta_epoch": "2025-12-01T18:41:08.783232",
        "meta_mean_motion": 1.00270951,
        "meta_eccentricity": 8.49e-05,
        "meta_inclination": 0.0157,
        "meta_ra_of_asc_node": 294.6924,
        "meta_arg_of_pericenter": 230.7347,
        "meta_mean_anomaly": 130.2562,
        "meta_ephemeris_type": 0,
        "meta_classification_type": "U",
        "meta_norad_cat_id": 40874,
        "meta_element_set_no": 999,
        "meta_rev_at_epoch": 3764,
        "meta_bstar": 0,
        "meta_mean_motion_dot": -2.64e-06,
        "meta_mean_motion_ddot": 0,
        "tle_line1": "1 40874U 15039A   25335.77857388 -.00000264  00000+0  00000+0 0  9993",
        "tle_line2": "2 40874   0.0157 294.6924 0000849 230.7347 130.2562  1.00270951 37645"
      },
      "geometry": {
        "type": "Point",
        "coordinates": [
          123.40902715091386,
          -0.0018460837378271176
        ]
      }
    }
  ]
}